start=new Date('2022-06-12T00:00:00.000Z').valueOf();
sats=[{"INCLINATION":"53.0562","MEAN_MOTION_DOT":"0.00001063","COUNTRY_CODE":"US","OBJECT_TYPE":"PAYLOAD","CENTER_NAME":"EARTH","GP_ID":"205927532","RA_OF_ASC_NODE":"2.5755","RCS_SIZE":"LARGE","NORAD_CAT_ID":"48387","MEAN_ANOMALY":"305.7888","ECCENTRICITY":"0.00017130","TLE_LINE2":"2 48387  53.0562   2.5755 0001713  54.3261 305.7888 15.07211379 61226","EPOCH":"2022-06-11T20:27:56.805984","PERIOD":"95.541","ARG_OF_PERICENTER":"54.3261","OBJECT_ID":"2021-038AL","TLE_LINE1":"1 48387U 21038AL  22162.85274081  .00001063  00000-0  88454-4 0  9995","ELEMENT_SET_NO":"999","TIME_SYSTEM":"UTC","REF_FRAME":"TEME","FILE":"3492149","PERIAPSIS":"543.542","SITE":"AFETR","LAUNCH_DATE":"2021-05-04","CLASSIFICATION_TYPE":"U","OBJECT_NAME":"STARLINK-2600","MEAN_MOTION":"15.07211379","MEAN_ELEMENT_THEORY":"SGP4","EPHEMERIS_TYPE":"0","MEAN_MOTION_DDOT":"0.0000000000000","DECAY_DATE":null,"APOAPSIS":"545.914","BSTAR":"0.00008845400000","REV_AT_EPOCH":"6122","SEMIMAJOR_AXIS":"6922.863"},{"TLE_LINE2":"2 48388  53.0563   2.6171 0001329  69.1643 290.9488 15.06384511 61221","ECCENTRICITY":"0.00013290","NORAD_CAT_ID":"48388","MEAN_ANOMALY":"290.9488","OBJECT_ID":"2021-038AM","ARG_OF_PERICENTER":"69.1643","EPOCH":"2022-06-11T20:21:14.505120","PERIOD":"95.593","TLE_LINE1":"1 48388U 21038AM  22162.84808455 -.00000316  00000-0 -23116-5 0  9990","INCLINATION":"53.0563","MEAN_MOTION_DOT":"-0.00000316","COUNTRY_CODE":"US","CENTER_NAME":"EARTH","OBJECT_TYPE":"PAYLOAD","RA_OF_ASC_NODE":"2.6171","GP_ID":"205927781","RCS_SIZE":"LARGE","BSTAR":"-0.00000231160000","REV_AT_EPOCH":"6122","SEMIMAJOR_AXIS":"6925.396","TIME_SYSTEM":"UTC","ELEMENT_SET_NO":"999","REF_FRAME":"TEME","LAUNCH_DATE":"2021-05-04","SITE":"AFETR","OBJECT_NAME":"STARLINK-2594","CLASSIFICATION_TYPE":"U","FILE":"3492149","PERIAPSIS":"546.341","MEAN_ELEMENT_THEORY":"SGP4","EPHEMERIS_TYPE":"0","MEAN_MOTION":"15.06384511","APOAPSIS":"548.181","DECAY_DATE":null,"MEAN_MOTION_DDOT":"0.0000000000000"},{"ARG_OF_PERICENTER":"67.1700","OBJECT_ID":"2021-038AN","PERIOD":"95.593","EPOCH":"2022-06-11T20:01:57.565920","ECCENTRICITY":"0.00015710","TLE_LINE2":"2 48389  53.0560 357.6664 0001571  67.1700 292.9455 15.06389988 61285","MEAN_ANOMALY":"292.9455","NORAD_CAT_ID":"48389","TLE_LINE1":"1 48389U 21038AN  22162.83469405  .00001962  00000-0  15063-3 0  9994","OBJECT_TYPE":"PAYLOAD","CENTER_NAME":"EARTH","MEAN_MOTION_DOT":"0.00001962","INCLINATION":"53.0560","COUNTRY_CODE":"US","RCS_SIZE":"LARGE","RA_OF_ASC_NODE":"357.6664","GP_ID":"205926532","BSTAR":"0.00015063000000","SEMIMAJOR_AXIS":"6925.379","REV_AT_EPOCH":"6128","REF_FRAME":"TEME","TIME_SYSTEM":"UTC","ELEMENT_SET_NO":"999","EPHEMERIS_TYPE":"0","MEAN_ELEMENT_THEORY":"SGP4","MEAN_MOTION":"15.06389988","APOAPSIS":"548.332","DECAY_DATE":null,"MEAN_MOTION_DDOT":"0.0000000000000","SITE":"AFETR","CLASSIFICATION_TYPE":"U","LAUNCH_DATE":"2021-05-04","OBJECT_NAME":"STARLINK-1904","FILE":"3492149","PERIAPSIS":"546.156"},{"LAUNCH_DATE":"2021-05-04","SITE":"AFETR","CLASSIFICATION_TYPE":"U","OBJECT_NAME":"STARLINK-2586","FILE":"3492149","PERIAPSIS":"546.170","APOAPSIS":"548.316","DECAY_DATE":null,"MEAN_MOTION_DDOT":"0.0000000000000","MEAN_ELEMENT_THEORY":"SGP4","EPHEMERIS_TYPE":"0","MEAN_MOTION":"15.06390346","TIME_SYSTEM":"UTC","ELEMENT_SET_NO":"999","REF_FRAME":"TEME","REV_AT_EPOCH":"6250","SEMIMAJOR_AXIS":"6925.378","BSTAR":"0.00003711000000","RA_OF_ASC_NODE":"357.6878","GP_ID":"205926781","RCS_SIZE":"LARGE","COUNTRY_CODE":"US","MEAN_MOTION_DOT":"0.00000271","INCLINATION":"53.0556","CENTER_NAME":"EARTH","OBJECT_TYPE":"PAYLOAD","TLE_LINE1":"1 48390U 21038AP  22162.83195313  .00000271  00000-0  37110-4 0  9990","TLE_LINE2":"2 48390  53.0556 357.6878 0001549  61.0293 299.0851 15.06390346 62508","ECCENTRICITY":"0.00015490","NORAD_CAT_ID":"48390","MEAN_ANOMALY":"299.0851","OBJECT_ID":"2021-038AP","ARG_OF_PERICENTER":"61.0293","EPOCH":"2022-06-11T19:58:00.750432","PERIOD":"95.593"},{"COUNTRY_CODE":"US","MEAN_MOTION_DOT":"0.00000161","INCLINATION":"53.0543","CENTER_NAME":"EARTH","OBJECT_TYPE":"PAYLOAD","RA_OF_ASC_NODE":"357.7130","GP_ID":"205927033","RCS_SIZE":"LARGE","ECCENTRICITY":"0.00018180","TLE_LINE2":"2 48391  53.0543 357.7130 0001818  54.1432 305.9725 15.06387793 62503","MEAN_ANOMALY":"305.9725","NORAD_CAT_ID":"48391","ARG_OF_PERICENTER":"54.1432","OBJECT_ID":"2021-038AQ","EPOCH":"2022-06-11T19:52:43.277088","PERIOD":"95.593","TLE_LINE1":"1 48391U 21038AQ  22162.82827867  .00000161  00000-0  29739-4 0  9992","TIME_SYSTEM":"UTC","ELEMENT_SET_NO":"999","REF_FRAME":"TEME","SITE":"AFETR","LAUNCH_DATE":"2021-05-04","OBJECT_NAME":"STARLINK-2607","CLASSIFICATION_TYPE":"U","PERIAPSIS":"545.992","FILE":"3492149","APOAPSIS":"548.510","DECAY_DATE":null,"MEAN_MOTION_DDOT":"0.0000000000000","EPHEMERIS_TYPE":"0","MEAN_ELEMENT_THEORY":"SGP4","MEAN_MOTION":"15.06387793","BSTAR":"0.00002973900000","REV_AT_EPOCH":"6250","SEMIMAJOR_AXIS":"6925.386"},{"MEAN_ANOMALY":"298.3113","NORAD_CAT_ID":"48392","TLE_LINE2":"2 48392  53.0555 357.7285 0001569  61.8035 298.3113 15.06397955 62502","ECCENTRICITY":"0.00015690","EPOCH":"2022-06-11T19:47:23.209152","PERIOD":"95.592","ARG_OF_PERICENTER":"61.8035","OBJECT_ID":"2021-038AR","TLE_LINE1":"1 48392U 21038AR  22162.82457418  .00001216  00000-0  10051-3 0  9992","COUNTRY_CODE":"US","MEAN_MOTION_DOT":"0.00001216","INCLINATION":"53.0555","CENTER_NAME":"EARTH","OBJECT_TYPE":"PAYLOAD","GP_ID":"205927282","RA_OF_ASC_NODE":"357.7285","RCS_SIZE":"LARGE","BSTAR":"0.00010051000000","REV_AT_EPOCH":"6250","SEMIMAJOR_AXIS":"6925.355","TIME_SYSTEM":"UTC","ELEMENT_SET_NO":"999","REF_FRAME":"TEME","FILE":"3492149","PERIAPSIS":"546.133","SITE":"AFETR","LAUNCH_DATE":"2021-05-04","OBJECT_NAME":"STARLINK-2605","CLASSIFICATION_TYPE":"U","MEAN_MOTION_DDOT":"0.0000000000000","APOAPSIS":"548.306","DECAY_DATE":null,"MEAN_MOTION":"15.06397955","EPHEMERIS_TYPE":"0","MEAN_ELEMENT_THEORY":"SGP4"},{"SEMIMAJOR_AXIS":"6925.346","REV_AT_EPOCH":"6250","BSTAR":"0.00006992700000","MEAN_MOTION":"15.06400871","MEAN_ELEMENT_THEORY":"SGP4","EPHEMERIS_TYPE":"0","MEAN_MOTION_DDOT":"0.0000000000000","DECAY_DATE":null,"APOAPSIS":"548.370","FILE":"3492149","PERIAPSIS":"546.052","SITE":"AFETR","LAUNCH_DATE":"2021-05-04","OBJECT_NAME":"STARLINK-2602","CLASSIFICATION_TYPE":"U","REF_FRAME":"TEME","ELEMENT_SET_NO":"999","TIME_SYSTEM":"UTC","TLE_LINE1":"1 48393U 21038AS  22162.82088723  .00000760  00000-0  69927-4 0  9992","EPOCH":"2022-06-11T19:42:04.656672","PERIOD":"95.592","OBJECT_ID":"2021-038AS","ARG_OF_PERICENTER":"64.4592","NORAD_CAT_ID":"48393","MEAN_ANOMALY":"295.6570","TLE_LINE2":"2 48393  53.0552 357.7445 0001674  64.4592 295.6570 15.06400871 62501","ECCENTRICITY":"0.00016740","RCS_SIZE":"LARGE","GP_ID":"205926033","RA_OF_ASC_NODE":"357.7445","CENTER_NAME":"EARTH","OBJECT_TYPE":"PAYLOAD","INCLINATION":"53.0552","MEAN_MOTION_DOT":"0.00000760","COUNTRY_CODE":"US"},{"INCLINATION":"53.0574","MEAN_MOTION_DOT":"0.00001324","COUNTRY_CODE":"US","OBJECT_TYPE":"PAYLOAD","CENTER_NAME":"EARTH","GP_ID":"205926283","RA_OF_ASC_NODE":"357.7559","RCS_SIZE":"LARGE","NORAD_CAT_ID":"48394","MEAN_ANOMALY":"298.0414","ECCENTRICITY":"0.00016230","TLE_LINE2":"2 48394  53.0574 357.7559 0001623  62.0739 298.0414 15.06398034 62504","EPOCH":"2022-06-11T19:36:46.674432","PERIOD":"95.592","ARG_OF_PERICENTER":"62.0739","OBJECT_ID":"2021-038AT","TLE_LINE1":"1 48394U 21038AT  22162.81720688  .00001324  00000-0  10774-3 0  9997","ELEMENT_SET_NO":"999","TIME_SYSTEM":"UTC","REF_FRAME":"TEME","FILE":"3492149","PERIAPSIS":"546.096","SITE":"AFETR","OBJECT_NAME":"STARLINK-2573","LAUNCH_DATE":"2021-05-04","CLASSIFICATION_TYPE":"U","MEAN_MOTION":"15.06398034","MEAN_ELEMENT_THEORY":"SGP4","EPHEMERIS_TYPE":"0","MEAN_MOTION_DDOT":"0.0000000000000","DECAY_DATE":null,"APOAPSIS":"548.344","BSTAR":"0.00010774000000","REV_AT_EPOCH":"6250","SEMIMAJOR_AXIS":"6925.355"},{"FILE":"3492149","PERIAPSIS":"553.637","OBJECT_NAME":"STARLINK-2574","SITE":"AFETR","LAUNCH_DATE":"2021-05-04","CLASSIFICATION_TYPE":"U","MEAN_MOTION":"15.03961021","MEAN_ELEMENT_THEORY":"SGP4","EPHEMERIS_TYPE":"0","MEAN_MOTION_DDOT":"0.0000000000000","DECAY_DATE":null,"APOAPSIS":"555.760","TIME_SYSTEM":"UTC","ELEMENT_SET_NO":"999","REF_FRAME":"TEME","REV_AT_EPOCH":"6250","SEMIMAJOR_AXIS":"6932.834","BSTAR":"0.00014511000000","GP_ID":"205927533","RA_OF_ASC_NODE":"358.1631","RCS_SIZE":"LARGE","MEAN_MOTION_DOT":"0.00001750","INCLINATION":"53.0573","COUNTRY_CODE":"US","CENTER_NAME":"EARTH","OBJECT_TYPE":"PAYLOAD","TLE_LINE1":"1 48395U 21038AU  22162.85808627  .00001750  00000-0  14511-3 0  9998","MEAN_ANOMALY":"283.0236","NORAD_CAT_ID":"48395","TLE_LINE2":"2 48395  53.0573 358.1631 0001531  77.0923 283.0236 15.03961021 62504","ECCENTRICITY":"0.00015310","EPOCH":"2022-06-11T20:35:38.653728","PERIOD":"95.747","OBJECT_ID":"2021-038AU","ARG_OF_PERICENTER":"77.0923"},{"MEAN_MOTION_DOT":"0.00000848","INCLINATION":"53.0559","COUNTRY_CODE":"US","CENTER_NAME":"EARTH","OBJECT_TYPE":"PAYLOAD","RA_OF_ASC_NODE":"357.7760","GP_ID":"205927782","RCS_SIZE":"LARGE","TLE_LINE2":"2 48396  53.0559 357.7760 0001546  67.6709 292.4444 15.06396917 62504","ECCENTRICITY":"0.00015460","MEAN_ANOMALY":"292.4444","NORAD_CAT_ID":"48396","ARG_OF_PERICENTER":"67.6709","OBJECT_ID":"2021-038AV","PERIOD":"95.592","EPOCH":"2022-06-11T19:31:28.084800","TLE_LINE1":"1 48396U 21038AV  22162.81351950  .00000848  00000-0  75811-4 0  9995","TIME_SYSTEM":"UTC","ELEMENT_SET_NO":"999","REF_FRAME":"TEME","SITE":"AFETR","LAUNCH_DATE":"2021-05-04","CLASSIFICATION_TYPE":"U","OBJECT_NAME":"STARLINK-2575","FILE":"3492149","PERIAPSIS":"546.152","EPHEMERIS_TYPE":"0","MEAN_ELEMENT_THEORY":"SGP4","MEAN_MOTION":"15.06396917","DECAY_DATE":null,"APOAPSIS":"548.294","MEAN_MOTION_DDOT":"0.0000000000000","BSTAR":"0.00007581100000","REV_AT_EPOCH":"6250","SEMIMAJOR_AXIS":"6925.358"}];
